CCSDS_OMM_VERS = 2.0
CREATION_DATE  = 
ORIGINATOR     = 

OBJECT_NAME    = CYGNUS NG-23
OBJECT_ID      = 2025-208A
CENTER_NAME    = EARTH
REF_FRAME      = TEME
TIME_SYSTEM    = UTC
MEAN_ELEMENT_THEORY = SGP/SGP4

EPOCH          = 2025-12-15T05:59:35.690496
MEAN_MOTION    = 15.49601155
ECCENTRICITY   = .00031934
INCLINATION    = 51.6306
RA_OF_ASC_NODE = 130.0501
ARG_OF_PERICENTER = 251.9008
MEAN_ANOMALY   = 108.1633

EPHEMERIS_TYPE = 0
CLASSIFICATION_TYPE = U
NORAD_CAT_ID   = 65616
ELEMENT_SET_NO = 999
REV_AT_EPOCH   = 22
BSTAR          = .13467464E-3
MEAN_MOTION_DOT = .7132E-4
MEAN_MOTION_DDOT = 0

CCSDS_OMM_VERS = 2.0
CREATION_DATE  = 
ORIGINATOR     = 

OBJECT_NAME    = DRAGONFLY
OBJECT_ID      = 1998-067XH
CENTER_NAME    = EARTH
REF_FRAME      = TEME
TIME_SYSTEM    = UTC
MEAN_ELEMENT_THEORY = SGP/SGP4

EPOCH          = 2025-12-14T18:32:10.159584
MEAN_MOTION    = 15.72674024
ECCENTRICITY   = .00069619
INCLINATION    = 51.6244
RA_OF_ASC_NODE = 125.3489
ARG_OF_PERICENTER = 292.1448
MEAN_ANOMALY   = 67.8811

EPHEMERIS_TYPE = 0
CLASSIFICATION_TYPE = U
NORAD_CAT_ID   = 65729
ELEMENT_SET_NO = 999
REV_AT_EPOCH   = 1348
BSTAR          = .10954429E-2
MEAN_MOTION_DOT = .152909E-2
MEAN_MOTION_DDOT = 0

CCSDS_OMM_VERS = 2.0
CREATION_DATE  = 
ORIGINATOR     = 

OBJECT_NAME    = 1998-067XK
OBJECT_ID      = 1998-067XK
CENTER_NAME    = EARTH
REF_FRAME      = TEME
TIME_SYSTEM    = UTC
MEAN_ELEMENT_THEORY = SGP/SGP4

EPOCH          = 2025-12-15T02:17:17.539296
MEAN_MOTION    = 15.66227391
ECCENTRICITY   = .00048341
INCLINATION    = 51.6280
RA_OF_ASC_NODE = 125.2769
ARG_OF_PERICENTER = 261.3010
MEAN_ANOMALY   = 98.7438

EPHEMERIS_TYPE = 0
CLASSIFICATION_TYPE = U
NORAD_CAT_ID   = 65731
ELEMENT_SET_NO = 999
REV_AT_EPOCH   = 1351
BSTAR          = .72558706E-3
MEAN_MOTION_DOT = .76548E-3
MEAN_MOTION_DDOT = 0

CCSDS_OMM_VERS = 2.0
CREATION_DATE  = 
ORIGINATOR     = 

OBJECT_NAME    = RSP-03
OBJECT_ID      = 1998-067XL
CENTER_NAME    = EARTH
REF_FRAME      = TEME
TIME_SYSTEM    = UTC
MEAN_ELEMENT_THEORY = SGP/SGP4

EPOCH          = 2025-12-15T02:17:54.297312
MEAN_MOTION    = 15.69261610
ECCENTRICITY   = .00056198
INCLINATION    = 51.6255
RA_OF_ASC_NODE = 124.5189
ARG_OF_PERICENTER = 267.5982
MEAN_ANOMALY   = 92.4371

EPHEMERIS_TYPE = 0
CLASSIFICATION_TYPE = U
NORAD_CAT_ID   = 65732
ELEMENT_SET_NO = 999
REV_AT_EPOCH   = 1353
BSTAR          = .84848916E-3
MEAN_MOTION_DOT = .101794E-2
MEAN_MOTION_DDOT = 0

CCSDS_OMM_VERS = 2.0
CREATION_DATE  = 
ORIGINATOR     = 

OBJECT_NAME    = GHS-01
OBJECT_ID      = 1998-067XM
CENTER_NAME    = EARTH
REF_FRAME      = TEME
TIME_SYSTEM    = UTC
MEAN_ELEMENT_THEORY = SGP/SGP4

EPOCH          = 2025-12-15T02:24:56.017440
MEAN_MOTION    = 15.75909200
ECCENTRICITY   = .00074389
INCLINATION    = 51.6273
RA_OF_ASC_NODE = 123.0490
ARG_OF_PERICENTER = 297.3204
MEAN_ANOMALY   = 62.7038

EPHEMERIS_TYPE = 0
CLASSIFICATION_TYPE = U
NORAD_CAT_ID   = 65733
ELEMENT_SET_NO = 999
REV_AT_EPOCH   = 1355
BSTAR          = .10424079E-2
MEAN_MOTION_DOT = .167711E-2
MEAN_MOTION_DDOT = 0

CCSDS_OMM_VERS = 2.0
CREATION_DATE  = 
ORIGINATOR     = 

OBJECT_NAME    = YOTSUBA-KULOVER
OBJECT_ID      = 1998-067XN
CENTER_NAME    = EARTH
REF_FRAME      = TEME
TIME_SYSTEM    = UTC
MEAN_ELEMENT_THEORY = SGP/SGP4

EPOCH          = 2025-12-14T10:37:31.352736
MEAN_MOTION    = 15.59735422
ECCENTRICITY   = .00013863
INCLINATION    = 51.6284
RA_OF_ASC_NODE = 131.4172
ARG_OF_PERICENTER = 271.9783
MEAN_ANOMALY   = 88.1051

EPHEMERIS_TYPE = 0
CLASSIFICATION_TYPE = U
NORAD_CAT_ID   = 65941
ELEMENT_SET_NO = 999
REV_AT_EPOCH   = 1012
BSTAR          = .91507112E-3
MEAN_MOTION_DOT = .74853E-3
MEAN_MOTION_DDOT = 0

CCSDS_OMM_VERS = 2.0
CREATION_DATE  = 
ORIGINATOR     = 

OBJECT_NAME    = BOTAN
OBJECT_ID      = 1998-067XP
CENTER_NAME    = EARTH
REF_FRAME      = TEME
TIME_SYSTEM    = UTC
MEAN_ELEMENT_THEORY = SGP/SGP4

EPOCH          = 2025-12-13T19:19:30.936288
MEAN_MOTION    = 15.63168137
ECCENTRICITY   = .00029855
INCLINATION    = 51.6273
RA_OF_ASC_NODE = 133.9097
ARG_OF_PERICENTER = 245.5023
MEAN_ANOMALY   = 114.5660

EPHEMERIS_TYPE = 0
CLASSIFICATION_TYPE = U
NORAD_CAT_ID   = 65942
ELEMENT_SET_NO = 999
REV_AT_EPOCH   = 1003
BSTAR          = .12359991E-2
MEAN_MOTION_DOT = .116317E-2
MEAN_MOTION_DDOT = 0

CCSDS_OMM_VERS = 2.0
CREATION_DATE  = 
ORIGINATOR     = 

OBJECT_NAME    = E-KAGAKU-1
OBJECT_ID      = 1998-067XQ
CENTER_NAME    = EARTH
REF_FRAME      = TEME
TIME_SYSTEM    = UTC
MEAN_ELEMENT_THEORY = SGP/SGP4

EPOCH          = 2025-12-14T15:14:24.603072
MEAN_MOTION    = 15.59736251
ECCENTRICITY   = .00018352
INCLINATION    = 51.6284
RA_OF_ASC_NODE = 130.4549
ARG_OF_PERICENTER = 215.0597
MEAN_ANOMALY   = 145.0275

EPHEMERIS_TYPE = 0
CLASSIFICATION_TYPE = U
NORAD_CAT_ID   = 65943
ELEMENT_SET_NO = 999
REV_AT_EPOCH   = 1015
BSTAR          = .73893681E-3
MEAN_MOTION_DOT = .60238E-3
MEAN_MOTION_DDOT = 0

CCSDS_OMM_VERS = 2.0
CREATION_DATE  = 
ORIGINATOR     = 

OBJECT_NAME    = HRC MONOBLOCK CAMERA
OBJECT_ID      = 1998-067XR
CENTER_NAME    = EARTH
REF_FRAME      = TEME
TIME_SYSTEM    = UTC
MEAN_ELEMENT_THEORY = SGP/SGP4

EPOCH          = 2025-12-15T08:26:23.325504
MEAN_MOTION    = 15.54333507
ECCENTRICITY   = .00029894
INCLINATION    = 51.6287
RA_OF_ASC_NODE = 128.4815
ARG_OF_PERICENTER = 195.8613
MEAN_ANOMALY   = 164.2285

EPHEMERIS_TYPE = 0
CLASSIFICATION_TYPE = U
NORAD_CAT_ID   = 66052
ELEMENT_SET_NO = 999
REV_AT_EPOCH   = 924
BSTAR          = .41424245E-3
MEAN_MOTION_DOT = .27244E-3
MEAN_MOTION_DDOT = 0

CCSDS_OMM_VERS = 2.0
CREATION_DATE  = 
ORIGINATOR     = 

OBJECT_NAME    = HTV-X1
OBJECT_ID      = 2025-241A
CENTER_NAME    = EARTH
REF_FRAME      = TEME
TIME_SYSTEM    = UTC
MEAN_ELEMENT_THEORY = SGP/SGP4

EPOCH          = 2025-12-15T05:59:35.690496
MEAN_MOTION    = 15.49601155
ECCENTRICITY   = .00031934
INCLINATION    = 51.6306
RA_OF_ASC_NODE = 130.0501
ARG_OF_PERICENTER = 251.9008
MEAN_ANOMALY   = 108.1633

EPHEMERIS_TYPE = 0
CLASSIFICATION_TYPE = U
NORAD_CAT_ID   = 66174
ELEMENT_SET_NO = 999
REV_AT_EPOCH   = 51
BSTAR          = .13467464E-3
MEAN_MOTION_DOT = .7132E-4
MEAN_MOTION_DDOT = 0

CCSDS_OMM_VERS = 2.0
CREATION_DATE  = 
ORIGINATOR     = 

OBJECT_NAME    = SZ-21 MODULE
OBJECT_ID      = 2025-246C
CENTER_NAME    = EARTH
REF_FRAME      = TEME
TIME_SYSTEM    = UTC
MEAN_ELEMENT_THEORY = SGP/SGP4

EPOCH          = 2025-12-15T05:22:01.876512
MEAN_MOTION    = 15.62622565
ECCENTRICITY   = .00062103
INCLINATION    = 41.4777
RA_OF_ASC_NODE = 0.8930
ARG_OF_PERICENTER = 273.7015
MEAN_ANOMALY   = 86.3114

EPHEMERIS_TYPE = 0
CLASSIFICATION_TYPE = U
NORAD_CAT_ID   = 66515
ELEMENT_SET_NO = 999
REV_AT_EPOCH   = 483
BSTAR          = .23307577E-3
MEAN_MOTION_DOT = .21182E-3
MEAN_MOTION_DDOT = 0

CCSDS_OMM_VERS = 2.0
CREATION_DATE  = 
ORIGINATOR     = 

OBJECT_NAME    = SHENZHOU-22
OBJECT_ID      = 2025-272A
CENTER_NAME    = EARTH
REF_FRAME      = TEME
TIME_SYSTEM    = UTC
MEAN_ELEMENT_THEORY = SGP/SGP4

EPOCH          = 2025-12-15T08:10:40.084608
MEAN_MOTION    = 15.59296400
ECCENTRICITY   = .0007961
INCLINATION    = 41.4685
RA_OF_ASC_NODE = 0.9167
ARG_OF_PERICENTER = 52.8673
MEAN_ANOMALY   = 307.2892

EPHEMERIS_TYPE = 0
CLASSIFICATION_TYPE = U
NORAD_CAT_ID   = 66645
ELEMENT_SET_NO = 999
REV_AT_EPOCH   = 26357
BSTAR          = .21537809E-3
MEAN_MOTION_DOT = .17163E-3
MEAN_MOTION_DDOT = 0

