CYGNUS NG-23            
1 65616U 25208A   25349.24971864  .00007132  00000+0  13467-3 0  9991
2 65616  51.6306 130.0501 0003193 251.9008 108.1633 15.49601155   221
DRAGONFLY               
1 65729U 98067XH  25348.77233981  .00152909  00000+0  10954-2 0  9997
2 65729  51.6244 125.3489 0006961 292.1448  67.8811 15.72674024 13482
1998-067XK              
1 65731U 98067XK  25349.09534189  .00076548  00000+0  72559-3 0  9994
2 65731  51.6280 125.2769 0004834 261.3010  98.7438 15.66227391 13511
RSP-03                  
1 65732U 98067XL  25349.09576733  .00101794  00000+0  84849-3 0  9993
2 65732  51.6255 124.5189 0005619 267.5982  92.4371 15.69261610 13534
GHS-01                  
1 65733U 98067XM  25349.10064835  .00167711  00000+0  10424-2 0  9999
2 65733  51.6273 123.0490 0007438 297.3204  62.7038 15.75909200 13556
YOTSUBA-KULOVER         
1 65941U 98067XN  25348.44272399  .00074853  00000+0  91507-3 0  9998
2 65941  51.6284 131.4172 0001386 271.9783  88.1051 15.59735422 10127
BOTAN                   
1 65942U 98067XP  25347.80521917  .00116317  00000+0  12360-2 0  9992
2 65942  51.6273 133.9097 0002985 245.5023 114.5660 15.63168137 10037
E-KAGAKU-1              
1 65943U 98067XQ  25348.63500698  .00060238  00000+0  73894-3 0  9998
2 65943  51.6284 130.4549 0001835 215.0597 145.0275 15.59736251 10152
HRC MONOBLOCK CAMERA    
1 66052U 98067XR  25349.35165886  .00027244  00000+0  41424-3 0  9990
2 66052  51.6287 128.4815 0002989 195.8613 164.2285 15.54333507  9249
HTV-X1                  
1 66174U 25241A   25349.24971864  .00007132  00000+0  13467-3 0  9998
2 66174  51.6306 130.0501 0003193 251.9008 108.1633 15.49601155   513
SZ-21 MODULE            
1 66515U 25246C   25349.22363283  .00021182  00000+0  23308-3 0  9996
2 66515  41.4777   0.8930 0006210 273.7015  86.3114 15.62622565  4837
SHENZHOU-22             
1 66645U 25272A   25349.34074172  .00017163  00000+0  21538-3 0  9995
2 66645  41.4685   0.9167 0007961  52.8673 307.2892 15.59296400263579
